1 20315U 89087A   24186.87575264 -.00000147  00000-0  00000-0 0  9991
2 20315  13.9231  12.5793 0006082 166.8133 165.0092  0.99005615124266
1 20315U 89087A   24186.87575264 -.00000146  00000-0  00000+0 0  9999
2 20315  13.9231  12.5793 0006082 166.8133 165.0092  0.99005615124288
1 20315U 89087A   24187.51462400 -.00000127  00000-0  00000-0 0  9998
2 20315  13.9235  12.5748 0006106 167.0162  32.5196  0.99005323124272
1 20315U 89087A   24187.91893521 -.00000115  00000-0  00000-0 0  9991
2 20315  13.9237  12.5719 0006130 167.0079 176.6366  0.99005150124273
1 20315U 89087A   24188.62537229 -.00000094  00000-0  00000-0 0  9996
2 20315  13.9241  12.5669 0006155 167.2235  68.2156  0.99004865124281
1 20315U 89087A   24188.85397542 -.00000087  00000-0  00000-0 0  9995
2 20315  13.9242  12.5653 0006168 167.2077 149.7120  0.99004779124283
1 20315U 89087A   24188.99650068 -.00000083  00000-0  00000-0 0  9991
2 20315  13.9243  12.5643 0006177 167.2402 200.4794  0.99004725124299
1 20315U 89087A   24188.99650068 -.00000082  00000-0  00000+0 0  9999
2 20315  13.9243  12.5643 0006177 167.2402 200.4794  0.99004725124301
1 20315U 89087A   24190.49788469 -.00000039  00000-0  00000-0 0  9997
2 20315  13.9251  12.5537 0006233 167.7111  15.1422  0.99004259124308
1 20315U 89087A   24190.99832000 -.00000025  00000-0  00000-0 0  9998
2 20315  13.9254  12.5502 0006257 167.7669 193.4545  0.99004143124316
1 20315U 89087A   24190.99832000 -.00000025  00000-0  00000+0 0  9997
2 20315  13.9254  12.5502 0006257 167.7669 193.4545  0.99004143124327
1 20315U 89087A   24192.99999376  .00000022  00000-0  00000+0 0  9995
2 20315  13.9265  12.5362 0006328 168.3857 186.2824  0.99003878124344
1 20315U 89087A   24193.50059809  .00000031  00000-0  00000-0 0  9992
2 20315  13.9267  12.5327 0006340 168.5642   4.5316  0.99003860124333
1 20315U 89087A   24194.00104035  .00000039  00000-0  00000-0 0  9998
2 20315  13.9270  12.5292 0006358 168.7013 182.7644  0.99003873124338
1 20315U 89087A   24195.07332102  .00000053  00000-0  00000+0 0  9999
2 20315  13.9276  12.5217 0006386 169.0413 204.6118  0.99003962124362
1 20315U 89087A   24195.57376245  .00000057  00000-0  00000-0 0  9995
2 20315  13.9279  12.5183 0006397 169.1730  22.8501  0.99004033124357
1 20315U 89087A   24196.07418152  .00000060  00000-0  00000-0 0  9999
2 20315  13.9282  12.5148 0006408 169.3523 201.0327  0.99004131124364
1 20315U 89087A   24197.07508861  .00000062  00000-0  00000-0 0  9999
2 20315  13.9287  12.5077 0006430 169.6604 197.4740  0.99004375124376
1 20315U 89087A   24197.07508861  .00000062  00000-0  00000+0 0  9998
2 20315  13.9287  12.5077 0006430 169.6604 197.4740  0.99004375124387
1 20315U 89087A   24198.57641277  .00000055  00000-0  00000-0 0  9996
2 20315  13.9295  12.4971 0006454 169.9806  12.2670  0.99004862124388
1 20315U 89087A   24199.07680272  .00000051  00000-0  00000+0 0  9995
2 20315  13.9298  12.4936 0006465 170.2040 190.3970  0.99005056124409
1 20315U 89087A   24199.57724958  .00000045  00000-0  00000-0 0  9994
2 20315  13.9301  12.4900 0006472 170.2202   8.7548  0.99005255124395
1 20315U 89087A   24200.07764182  .00000038  00000-0  00000-0 0  9997
2 20315  13.9303  12.4865 0006482 170.4402 186.8897  0.99005471124397
1 20315U 89087A   24200.57808017  .00000030  00000-0  00000-0 0  9990
2 20315  13.9306  12.4829 0006493 170.4590   5.2428  0.99005687124405
1 20315U 89087A   24201.07850628  .00000020  00000-0  00000-0 0  9990
2 20315  13.9309  12.4794 0006497 170.6443 183.4253  0.99005916124402
1 20315U 89087A   24201.07850628  .00000020  00000-0  00000+0 0  9999
2 20315  13.9309  12.4794 0006497 170.6443 183.4253  0.99005916124424
1 20315U 89087A   24201.57894515  .00000011  00000-0  00000-0 0  9998
2 20315  13.9312  12.4758 0006505 170.6407   1.8017  0.99006146124414
1 20315U 89087A   24202.57978161 -.00000012  00000-0  00000-0 0  9991
2 20315  13.9317  12.4686 0006518 170.7987 358.3761  0.99006616124426
1 20315U 89087A   24202.65115444 -.00000013  00000-0  00000-0 0  9998
2 20315  13.9318  12.4681 0006521 170.8091  23.8054  0.99006650124420
1 20315U 89087A   24203.15148443 -.00000026  00000-0  00000-0 0  9993
2 20315  13.9320  12.4645 0006524 170.9469 202.0029  0.99006885124430
1 20315U 89087A   24203.15148443 -.00000026  00000-0  00000+0 0  9992
2 20315  13.9320  12.4645 0006524 170.9469 202.0029  0.99006885124441
1 20315U 89087A   24203.65194622 -.00000038  00000-0  00000-0 0  9991
2 20315  13.9323  12.4609 0006536 170.9322  20.4005  0.99007118124430
1 20315U 89087A   24204.12827188 -.00000050  00000-0  00000-0 0  9998
2 20315  13.9326  12.4575 0006541 171.0386 190.0743  0.99007337124440
1 20315U 89087A   24205.12271634 -.00000077  00000-0  00000-0 0  9997
2 20315  13.9331  12.4504 0006555 171.0947 184.4766  0.99007775124444
1 20315U 89087A   24205.65365442 -.00000091  00000-0  00000-0 0  9992
2 20315  13.9334  12.4466 0006564 171.0784  13.7403  0.99007996124451
1 20315U 89087A   24205.65365442 -.00000091  00000-0  00000+0 0  9991
2 20315  13.9334  12.4466 0006564 171.0784  13.7403  0.99007996124462
1 20315U 89087A   24206.15405090 -.00000105  00000-0  00000-0 0  9998
2 20315  13.9337  12.4431 0006576 171.1505 192.0297  0.99008193124464
1 20315U 89087A   24206.65445676 -.00000118  00000-0  00000-0 0  9991
2 20315  13.9340  12.4395 0006587 171.1435  10.4019  0.99008382124466
1 20315U 89087A   24207.17688199 -.00000132  00000-0  00000-0 0  9994
2 20315  13.9343  12.4358 0006596 171.1741 196.5854  0.99008564124474
1 20315U 89087A   24207.65526347 -.00000144  00000-0  00000-0 0  9996
2 20315  13.9345  12.4324 0006604 171.1617   7.1133  0.99008719124470
1 20315U 89087A   24207.65526347 -.00000144  00000-0  00000+0 0  9995
2 20315  13.9345  12.4324 0006604 171.1617   7.1133  0.99008719124481
1 20315U 89087A   24208.21715959 -.00000158  00000-0  00000-0 0  9993
2 20315  13.9348  12.4284 0006618 171.1863 207.3726  0.99008884124482
1 20315U 89087A   24208.65611102 -.00000169  00000-0  00000-0 0  9998
2 20315  13.9351  12.4252 0006629 171.1993   3.8211  0.99009001124487
1 20315U 89087A   24209.13382920 -.00000180  00000-0  00000-0 0  9998
2 20315  13.9353  12.4218 0006647 171.2469 174.0532  0.99009113124481
1 20315U 89087A   24210.15741262 -.00000203  00000-0  00000+0 0  9995
2 20315  13.9359  12.4146 0006684 171.3269 178.8236  0.99009305124517
1 20315U 89087A   24210.65782382 -.00000213  00000-0  00000-0 0  9990
2 20315  13.9361  12.4110 0006708 171.4073 357.1122  0.99009372124501
1 20315U 89087A   24211.22959293 -.00000224  00000-0  00000-0 0  9993
2 20315  13.9364  12.4070 0006725 171.4398 200.8839  0.99009429124511
1 20315U 89087A   24211.72995206 -.00000232  00000-0  00000-0 0  9991
2 20315  13.9367  12.4034 0006725 171.4456  19.2287  0.99009461124514
1 20315U 89087A   24212.23039045 -.00000240  00000-0  00000-0 0  9997
2 20315  13.9370  12.3999 0006747 171.4802 197.5729  0.99009475124523
1 20315U 89087A   24212.23039045 -.00000240  00000-0  00000+0 0  9996
2 20315  13.9370  12.3999 0006747 171.4802 197.5729  0.99009475124534
1 20315U 89087A   24212.73080784 -.00000247  00000-0  00000-0 0  9995
2 20315  13.9373  12.3963 0006763 171.5862  15.8382  0.99009472124526
1 20315U 89087A   24213.23122269 -.00000253  00000-0  00000-0 0  9993
2 20315  13.9375  12.3927 0006783 171.6256 194.1693  0.99009453124534
1 20315U 89087A   24214.23202177 -.00000262  00000-0  00000-0 0  9991
2 20315  13.9381  12.3856 0006826 171.8387 190.6859  0.99009367124547
1 20315U 89087A   24215.18104861 -.00000268  00000-0  00000-0 0  9993
2 20315  13.9386  12.3789 0006854 172.0191 168.7807  0.99009230124542
1 20315U 89087A   24215.73308453 -.00000269  00000-0  00000-0 0  9998
2 20315  13.9390  12.3749 0006880 172.2469   5.3226  0.99009123124555
1 20315U 89087A   24216.24493774 -.00000269  00000-0  00000-0 0  9996
2 20315  13.9393  12.3715 0006907 172.3319 187.6842  0.99009017124556
1 20315U 89087A   24216.24493774 -.00000269  00000-0  00000+0 0  9995
2 20315  13.9393  12.3715 0006907 172.3319 187.6842  0.99009017124578
1 20315U 89087A   24216.73379487 -.00000268  00000-0  00000-0 0  9993
2 20315  13.9396  12.3681 0006922 172.5493   1.7165  0.99008896124562
1 20315U 89087A   24217.20952209 -.00000266  00000-0  00000-0 0  9993
2 20315  13.9399  12.3647 0006942 172.6787 171.1565  0.99008778124561
1 20315U 89087A   24217.73457715 -.00000263  00000-0  00000-0 0  9990
2 20315  13.9402  12.3611 0006958 172.9162 358.0707  0.99008625124570
1 20315U 89087A   24218.80662497 -.00000254  00000-0  00000+0 0  9993
2 20315  13.9409  12.3535 0006989 173.2780  19.8306  0.99008294124597
1 20315U 89087A   24219.80737722 -.00000242  00000-0  00000-0 0  9996
2 20315  13.9415  12.3466 0007022 173.6349  16.1815  0.99007955124599
1 20315U 89087A   24220.80813160 -.00000227  00000-0  00000-0 0  9992
2 20315  13.9421  12.3397 0007052 173.9956  12.5282  0.99007598124602
1 20315U 89087A   24220.80813160 -.00000227  00000-0  00000+0 0  9991
2 20315  13.9421  12.3397 0007052 173.9956  12.5282  0.99007598124613
1 20315U 89087A   24221.29914131 -.00000218  00000-0  00000-0 0  9996
2 20315  13.9424  12.3363 0007070 174.1582 187.3799  0.99007424124619
1 20315U 89087A   24221.80892147 -.00000209  00000-0  00000-0 0  9995
2 20315  13.9427  12.3327 0007078 174.3471   8.8955  0.99007230124615
1 20315U 89087A   24222.30928573 -.00000200  00000-0  00000-0 0  9995
2 20315  13.9430  12.3292 0007097 174.5491 187.0414  0.99007051124627
1 20315U 89087A   24223.26985088 -.00000181  00000-0  00000-0 0  9993
2 20315  13.9435  12.3226 0007120 174.9159 169.0538  0.99006700124628
1 20315U 89087A   24223.26985088 -.00000181  00000-0  00000+0 0  9992
2 20315  13.9435  12.3226 0007120 174.9159 169.0538  0.99006700124640
1 20315U 89087A   24224.81111550 -.00000148  00000-0  00000-0 0  9993
2 20315  13.9445  12.3118 0007140 175.3823 357.9461  0.99006151124649
1 20315U 89087A   24225.33554343 -.00000137  00000-0  00000-0 0  9990
2 20315  13.9447  12.3081 0007177 175.7460 184.5057  0.99005983124648
